{
    "links": {
        "self": "http://www.neowsapp.com/rest/v1/neo/3172329?api_key=iIulBulltgU6a56xZRHN4H3l9WmuAYTsLGpBGhQ2"
    },
    "id": "3172329",
    "neo_reference_id": "3172329",
    "name": "(2004 BK11)",
    "designation": "2004 BK11",
    "nasa_jpl_url": "http://ssd.jpl.nasa.gov/sbdb.cgi?sstr=3172329",
    "absolute_magnitude_h": 22.4,
    "estimated_diameter": {
        "kilometers": {
            "estimated_diameter_min": 0.0880146521,
            "estimated_diameter_max": 0.1968067451
        },
        "meters": {
            "estimated_diameter_min": 88.0146520901,
            "estimated_diameter_max": 196.8067450894
        },
        "miles": {
            "estimated_diameter_min": 0.0546897524,
            "estimated_diameter_max": 0.122290004
        },
        "feet": {
            "estimated_diameter_min": 288.7619911632,
            "estimated_diameter_max": 645.6914415591
        }
    },
    "is_potentially_hazardous_asteroid": false,
    "close_approach_data": [
        {
            "close_approach_date": "2004-01-25",
            "close_approach_date_full": "2004-Jan-25 12:09",
            "epoch_date_close_approach": 1075032540000,
            "relative_velocity": {
                "kilometers_per_second": "2.7768449198",
                "kilometers_per_hour": "9996.6417111205",
                "miles_per_hour": "6211.5244010015"
            },
            "miss_distance": {
                "astronomical": "0.2788169694",
                "lunar": "108.4598010966",
                "kilometers": "41710424.742095178",
                "miles": "25917656.1170543364"
            },
            "orbiting_body": "Earth"
        }
    ],
    "orbital_data": {
        "orbit_id": "11",
        "orbit_determination_date": "2017-04-06 09:13:17",
        "first_observation_date": "2004-01-18",
        "last_observation_date": "2004-02-16",
        "data_arc_in_days": 29,
        "observations_used": 31,
        "orbit_uncertainty": "6",
        "minimum_orbit_intersection": ".274903",
        "jupiter_tisserand_invariant": "3.674",
        "epoch_osculation": "2459000.5",
        "eccentricity": ".3923607638628746",
        "semi_major_axis": "2.064306837251942",
        "inclination": "5.374130517614286",
        "ascending_node_longitude": "276.4381887119846",
        "orbital_period": "1083.327588896982",
        "perihelion_distance": "1.254353829740416",
        "perihelion_argument": "211.937404669635",
        "aphelion_distance": "2.874259844763469",
        "perihelion_time": "2459536.328404316313",
        "mean_anomaly": "181.9391553110199",
        "mean_motion": ".3323094543973935",
        "equinox": "J2000",
        "orbit_class": {
            "orbit_class_type": "AMO",
            "orbit_class_description": "Near-Earth asteroid orbits similar to that of 1221 Amor",
            "orbit_class_range": "1.017 AU < q (perihelion) < 1.3 AU"
        }
    },
    "is_sentry_object": false
}